NORAD_CAT_ID,OBJECT_NAME,OBJECT_TYPE,EPOCH,MEAN_MOTION,ECCENTRICITY,INCLINATION,RA_OF_ASC_NODE,ARG_OF_PERICENTER,MEAN_ANOMALY,BSTAR,MEAN_MOTION_DOT,MEAN_MOTION_DDOT,TLE_LINE0,TLE_LINE1,TLE_LINE2,SEMIMAJOR_AXIS,PERIOD,APOGEE,PERIGEE,DECAYED
52584.0,STARLINK-3922,PAYLOAD,2023-08-27 15:14:48,15.0884689,0.0001523,53.2167,311.8486,99.2016,260.9149,0.00046666,7.148e-05,0.0,0 STARLINK-3922,1 52584U 22051BA  23239.63528651  .00007148  00000-0  46666-3 0  9990,2 52584  53.2167 311.8486 0001523  99.2016 260.9149 15.08846890 72008,6917.859,95.437,540.778,538.671,0.0
52584.0,STARLINK-3922,PAYLOAD,2023-08-28 08:44:03,15.08840428,0.0001536,53.2169,308.5777,93.7353,266.3815,0.00026421,3.919e-05,0.0,0 STARLINK-3922,1 52584U 22051BA  23240.36392889  .00003919  00000-0  26421-3 0  9993,2 52584  53.2169 308.5777 0001536  93.7353 266.3815 15.08840428 72116,6917.879,95.438,540.807,538.681,0.0
52584.0,STARLINK-3922,PAYLOAD,2023-08-28 13:30:12,15.08849002,0.0001376,53.2168,307.6864,92.7107,267.4043,0.00022516,3.298e-05,0.0,0 STARLINK-3922,1 52584U 22051BA  23240.56264412  .00003298  00000-0  22516-3 0  9996,2 52584  53.2168 307.6864 0001376  92.7107 267.4043 15.08849002 72145,6917.853,95.437,540.67,538.766,0.0
52584.0,STARLINK-3922,PAYLOAD,2023-08-28 23:02:31,15.08843917,0.0001398,53.2165,305.9033,85.5502,274.565,0.00010694,1.415e-05,0.0,0 STARLINK-3922,1 52584U 22051BA  23240.96008531  .00001415  00000-0  10694-3 0  9991,2 52584  53.2165 305.9033 0001398  85.5502 274.5650 15.08843917 72203,6917.868,95.437,540.701,538.766,0.0
52584.0,STARLINK-3922,PAYLOAD,2023-08-29 10:10:13,15.08837017,0.0001405,53.2163,303.8216,86.861,273.2543,-3.9062e-05,-9.1e-06,0.0,0 STARLINK-3922,1 52584U 22051BA  23241.42376848 -.00000910  00000-0 -39062-4 0  9994,2 52584  53.2163 303.8216 0001405  86.8610 273.2543 15.08837017 72272,6917.89,95.438,540.726,538.783,0.0
52584.0,STARLINK-3922,PAYLOAD,2023-08-29 11:45:36,15.08840721,0.0001422,53.2166,303.5244,86.2641,273.8514,3.4625e-05,2.63e-06,0.0,0 STARLINK-3922,1 52584U 22051BA  23241.49000820  .00000263  00000-0  34625-4 0  9994,2 52584  53.2166 303.5244 0001422  86.2641 273.8514 15.08840721 72281,6917.878,95.438,540.727,538.759,0.0
52584.0,STARLINK-3922,PAYLOAD,2023-08-29 22:53:18,15.08840749,0.0001268,53.2161,301.4424,86.9074,273.2064,2.8747e-05,1.7e-06,0.0,0 STARLINK-3922,1 52584U 22051BA  23241.95368749  .00000170  00000-0  28747-4 0  9997,2 52584  53.2161 301.4424 0001268  86.9074 273.2064 15.08840749 72350,6917.878,95.438,540.62,538.866,0.0
52584.0,STARLINK-3922,PAYLOAD,2023-08-30 08:25:37,15.08838932,0.000141,53.2165,299.6593,88.8137,271.3017,8.4486e-05,1.057e-05,0.0,0 STARLINK-3922,1 52584U 22051BA  23242.35113002  .00001057  00000-0  84486-4 0  9999,2 52584  53.2165 299.6593 0001410  88.8137 271.3017 15.08838932 72414,6917.884,95.438,540.724,538.773,0.0
52584.0,STARLINK-3922,PAYLOAD,2023-08-30 11:36:23,15.08841921,0.000143,53.2164,299.0648,83.2091,276.9064,0.00010571,1.395e-05,0.0,0 STARLINK-3922,1 52584U 22051BA  23242.48360881  .00001395  00000-0  10571-3 0  9990,2 52584  53.2164 299.0648 0001430  83.2091 276.9064 15.08841921 72435,6917.875,95.437,540.729,538.75,0.0
52584.0,STARLINK-3922,PAYLOAD,2023-08-30 22:44:05,15.08847458,0.0001179,53.2163,296.9827,83.0486,277.064,-0.00014022,-2.519e-05,0.0,0 STARLINK-3922,1 52584U 22051BA  23242.94728439 -.00002519  00000-0 -14022-3 0  9994,2 52584  53.2163 296.9827 0001179  83.0486 277.0640 15.08847458 72506,6917.858,95.437,540.538,538.907,0.0
52584.0,STARLINK-3922,PAYLOAD,2023-09-01 03:21:02,15.08841247,0.000141,53.2172,291.6308,83.2481,276.8672,0.00010245,1.343e-05,0.0,0 STARLINK-3922,1 52584U 22051BA  23244.13961108  .00001343  00000-0  10245-3 0  9994,2 52584  53.2172 291.6308 0001410  83.2481 276.8672 15.08841247 72688,6917.877,95.437,540.717,538.766,0.0
52584.0,STARLINK-3922,PAYLOAD,2023-09-01 09:42:34,15.08844341,0.0001417,53.2171,290.4414,83.4044,276.7109,0.00012301,1.671e-05,0.0,0 STARLINK-3922,1 52584U 22051BA  23244.40456897  .00001671  00000-0  12301-3 0  9997,2 52584  53.2171 290.4414 0001417  83.4044 276.7109 15.08844341 72723,6917.867,95.437,540.712,538.752,0.0
52584.0,STARLINK-3922,PAYLOAD,2023-09-01 14:28:43,15.08848879,0.0001423,53.2168,289.5485,84.6274,275.4881,0.00012513,1.705e-05,0.0,0 STARLINK-3922,1 52584U 22051BA  23244.60328523  .00001705  00000-0  12513-3 0  9996,2 52584  53.2168 289.5485 0001423  84.6274 275.4881 15.08848879 72757,6917.853,95.437,540.703,538.734,0.0
52584.0,STARLINK-3922,PAYLOAD,2023-09-02 09:33:21,15.08845586,0.0001773,53.2153,285.9783,93.8495,266.27,0.0001182,1.594e-05,0.0,0 STARLINK-3922,1 52584U 22051BA  23245.39816641  .00001594  00000-0  11820-3 0  9992,2 52584  53.2153 285.9783 0001773  93.8495 266.2700 15.08845586 72870,6917.863,95.437,540.955,538.502,0.0
52584.0,STARLINK-3922,PAYLOAD,2023-09-02 14:19:31,15.08843761,0.0001721,53.2153,285.0863,93.3258,266.7931,0.00010766,1.426e-05,0.0,0 STARLINK-3922,1 52584U 22051BA  23245.59688701  .00001426  00000-0  10766-3 0  9990,2 52584  53.2153 285.0863 0001721  93.3258 266.7931 15.08843761 72903,6917.869,95.437,540.924,538.543,0.0
52584.0,STARLINK-3922,PAYLOAD,2023-09-03 09:24:08,15.08839921,0.000179,53.2149,281.5177,94.0767,266.043,4.8176e-05,4.79e-06,0.0,0 STARLINK-3922,1 52584U 22051BA  23246.39177056  .00000479  00000-0  48176-4 0  9999,2 52584  53.2149 281.5177 0001790  94.0767 266.0430 15.08839921 73020,6917.881,95.438,540.984,538.507,0.0
52584.0,STARLINK-3922,PAYLOAD,2023-09-03 18:56:28,15.08830208,0.0001831,53.216,279.7328,89.6977,270.4225,-3.4027e-05,-8.29e-06,0.0,0 STARLINK-3922,1 52584U 22051BA  23246.78921997 -.00000829  00000-0 -34027-4 0  9994,2 52584  53.2160 279.7328 0001831  89.6977 270.4225 15.08830208 73085,6917.91,95.438,541.042,538.509,0.0
52584.0,STARLINK-3922,PAYLOAD,2023-09-04 02:53:24,15.08831282,0.0001445,53.217,278.2454,92.8141,267.3017,-3.5282e-05,-8.49e-06,0.0,0 STARLINK-3922,1 52584U 22051BA  23247.12041906 -.00000849  00000-0 -35282-4 0  9992,2 52584  53.2170 278.2454 0001445  92.8141 267.3017 15.08831282 73133,6917.907,95.438,540.772,538.772,0.0
52584.0,STARLINK-3922,PAYLOAD,2023-09-04 09:14:56,15.08832578,0.0001533,53.2156,277.0574,93.5297,266.587,3.4216e-05,2.57e-06,0.0,0 STARLINK-3922,1 52584U 22051BA  23247.38537791  .00000257  00000-0  34216-4 0  9999,2 52584  53.2156 277.0574 0001533  93.5297 266.5870 15.08832578 73176,6917.903,95.438,540.829,538.708,0.0
52584.0,STARLINK-3922,PAYLOAD,2023-09-04 10:50:19,15.08833691,0.0001416,53.2163,276.7601,91.979,268.1365,8.991e-06,-1.45e-06,0.0,0 STARLINK-3922,1 52584U 22051BA  23247.45161778 -.00000145  00000-0  89910-5 0  9994,2 52584  53.2163 276.7601 0001416  91.9790 268.1365 15.08833691 73119,6917.9,95.438,540.744,538.785,0.0
52584.0,STARLINK-3922,PAYLOAD,2023-09-04 18:47:15,15.08836259,0.0001408,53.2164,275.2733,92.07,268.0453,3.3881e-05,2.51e-06,0.0,0 STARLINK-3922,1 52584U 22051BA  23247.78281667  .00000251  00000-0  33881-4 0  9992,2 52584  53.2164 275.2733 0001408  92.0700 268.0453 15.08836259 73237,6917.892,95.438,540.731,538.783,0.0
52584.0,STARLINK-3922,PAYLOAD,2023-09-05 01:08:48,15.08833306,0.000123,53.2165,274.084,89.946,270.1673,0.0001048,1.38e-05,0.0,0 STARLINK-3922,1 52584U 22051BA  23248.04777809  .00001380  00000-0  10480-3 0  9993,2 52584  53.2165 274.0840 0001230  89.9460 270.1673 15.08833306 73277,6917.901,95.438,540.617,538.915,0.0
52584.0,STARLINK-3922,PAYLOAD,2023-09-05 12:16:29,15.08840971,0.0001231,53.2163,272.0023,92.1191,267.9942,0.00010446,1.375e-05,0.0,0 STARLINK-3922,1 52584U 22051BA  23248.51145446  .00001375  00000-0  10446-3 0  9997,2 52584  53.2163 272.0023 0001231  92.1191 267.9942 15.08840971 73341,6917.877,95.437,540.594,538.891,0.0
52584.0,STARLINK-3922,PAYLOAD,2023-09-06 10:31:53,15.08839705,0.0001216,53.2162,267.839,93.6702,266.4429,0.00013677,1.889e-05,0.0,0 STARLINK-3922,1 52584U 22051BA  23249.43881735  .00001889  00000-0  13677-3 0  9996,2 52584  53.2162 267.8390 0001216  93.6702 266.4429 15.08839705 73411,6917.881,95.438,540.588,538.905,0.0
52584.0,STARLINK-3922,PAYLOAD,2023-09-06 13:42:40,15.08840941,0.000121,53.2161,267.2442,93.23,266.883,0.00014301,1.989e-05,0.0,0 STARLINK-3922,1 52584U 22051BA  23249.57129662  .00001989  00000-0  14301-3 0  9991,2 52584  53.2161 267.2442 0001210  93.2300 266.8830 15.08840941 73500,6917.878,95.437,540.58,538.905,0.0
52584.0,STARLINK-3922,PAYLOAD,2023-09-06 18:28:49,15.08836913,0.0001204,53.2161,266.3519,89.035,271.078,7.8748e-05,9.66e-06,0.0,0 STARLINK-3922,1 52584U 22051BA  23249.77002113  .00000966  00000-0  78748-4 0  9994,2 52584  53.2161 266.3519 0001204  89.0350 271.0780 15.08836913 73467,6917.89,95.438,540.588,538.922,0.0
52584.0,STARLINK-3922,PAYLOAD,2023-09-07 00:50:22,15.08836227,0.0001219,53.2162,265.162,89.4155,270.6977,6.5365e-05,7.52e-06,0.0,0 STARLINK-3922,1 52584U 22051BA  23250.03498217  .00000752  00000-0  65365-4 0  9993,2 52584  53.2162 265.1620 0001219  89.4155 270.6977 15.08836227 73574,6917.892,95.438,540.6,538.914,0.0
52584.0,STARLINK-3922,PAYLOAD,2023-09-07 08:47:17,15.08845118,0.0001508,53.2166,263.6753,99.0117,261.1046,-6.5464e-06,-3.92e-06,0.0,0 STARLINK-3922,1 52584U 22051BA  23250.36617806 -.00000392  00000-0 -65464-5 0  9999,2 52584  53.2166 263.6753 0001508  99.0117 261.1046 15.08845118 73621,6917.865,95.437,540.773,538.687,0.0
52584.0,STARLINK-3922,PAYLOAD,2023-09-07 18:19:36,15.08844062,0.0001346,53.2166,261.8912,87.373,272.7416,5.2703e-05,5.51e-06,0.0,0 STARLINK-3922,1 52584U 22051BA  23250.76361708  .00000551  00000-0  52703-4 0  9996,2 52584  53.2166 261.8912 0001346  87.3730 272.7416 15.08844062 73681,6917.868,95.437,540.664,538.802,0.0
52584.0,STARLINK-3922,PAYLOAD,2023-09-08 07:02:41,15.08842243,0.000137,53.2164,259.5124,87.1799,272.935,0.00013114,1.8e-05,0.0,0 STARLINK-3922,1 52584U 22051BA  23251.29353522  .00001800  00000-0  13114-3 0  9990,2 52584  53.2164 259.5124 0001370  87.1799 272.9350 15.08842243 73765,6917.874,95.437,540.686,538.791,0.0
